TURKSAT 4B              
1 40984U 15060A   15331.67695953  .00000104  00000-0  00000+0 0  9994
2 40984   0.0296  62.2502 0001569 172.9366 124.8150  1.00269900   475
